[{"OBJECT_NAME":"TIANMU-1 22","OBJECT_ID":"2023-208D","EPOCH":"2026-03-09T22:39:05.738688","MEAN_MOTION":15.29457749,"ECCENTRICITY":0.00031332,"INCLINATION":97.4379,"RA_OF_ASC_NODE":184.9419,"ARG_OF_PERICENTER":351.9312,"MEAN_ANOMALY":8.1877,"EPHEMERIS_TYPE":0,"CLASSIFICATION_TYPE":"U","NORAD_CAT_ID":58663,"ELEMENT_SET_NO":999,"REV_AT_EPOCH":12215,"BSTAR":0.00038239675,"MEAN_MOTION_DOT":0.00010851,"MEAN_MOTION_DDOT":0},{"OBJECT_NAME":"STARLINK-33671","OBJECT_ID":"2025-057P","EPOCH":"2026-03-09T21:46:22.643328","MEAN_MOTION":15.275876,"ECCENTRICITY":8.176e-5,"INCLINATION":42.9992,"RA_OF_ASC_NODE":18.9869,"ARG_OF_PERICENTER":116.2028,"MEAN_ANOMALY":243.8908,"EPHEMERIS_TYPE":0,"CLASSIFICATION_TYPE":"U","NORAD_CAT_ID":63320,"ELEMENT_SET_NO":999,"REV_AT_EPOCH":5593,"BSTAR":0.00097814194,"MEAN_MOTION_DOT":0.00026758,"MEAN_MOTION_DDOT":0}]
